{"type": "FeatureCollection", "features": [ {"type": "Feature", "properties": {"norad_id": 35475, "name": "COSMOS 2251 DEB", "group": "cosmos-2251-debris", "lat": -70.81715241741622, "lon": 12.555673810041691, "alt_km": 658.6720439097344, "timestamp": "2025-12-27T10:28:59.190388+00:00", "meta": {"OBJECT_NAME": "COSMOS 2251 DEB", "OBJECT_ID": "1993-036ALV", "EPOCH": "2025-12-26T15:20:30.310944", "MEAN_MOTION": 14.70039773, "ECCENTRICITY": 0.0019833, "INCLINATION": 74.022, "RA_OF_ASC_NODE": 138.659, "ARG_OF_PERICENTER": 211.7457, "MEAN_ANOMALY": 148.252, "EPHEMERIS_TYPE": 0, "CLASSIFICATION_TYPE": "U", "NORAD_CAT_ID": 35475, "ELEMENT_SET_NO": 999, "REV_AT_EPOCH": 65821, "BSTAR": 0.0022731, "MEAN_MOTION_DOT": 0.00013682, "MEAN_MOTION_DDOT": 0}, "tle": {"line1": "1 35475U 93036ALV 25360.63923971  .00013682  00000+0  22731-2 0  9997", "line2": "2 35475  74.0220 138.6590 0019833 211.7457 148.2520 14.70039773658219"}}, "geometry": {"type": "Point", "coordinates": [12.555673810041691, -70.81715241741622]}}, {"type": "Feature", "properties": {"norad_id": 35476, "name": "COSMOS 2251 DEB", "group": "cosmos-2251-debris", "lat": 55.702338480541414, "lon": 56.96868629493906, "alt_km": 628.2497027910513, "timestamp": "2025-12-27T10:28:59.190399+00:00", "meta": {"OBJECT_NAME": "COSMOS 2251 DEB", "OBJECT_ID": "1993-036ALW", "EPOCH": "2025-12-26T20:22:25.377312", "MEAN_MOTION": 14.75965598, "ECCENTRICITY": 0.00185898, "INCLINATION": 73.9779, "RA_OF_ASC_NODE": 33.2072, "ARG_OF_PERICENTER": 9.0948, "MEAN_ANOMALY": 167.5967, "EPHEMERIS_TYPE": 0, "CLASSIFICATION_TYPE": "U", "NORAD_CAT_ID": 35476, "ELEMENT_SET_NO": 999, "REV_AT_EPOCH": 88095, "BSTAR": 0.0016127497, "MEAN_MOTION_DOT": 0.00011113, "MEAN_MOTION_DDOT": 0}, "tle": {"line1": "1 35476U 93036ALW 25360.84890483  .00011113  00000+0  16127-2 0  9991", "line2": "2 35476  73.9779  33.2072 0018589   9.0948 167.5967 14.75965598880957"}}, "geometry": {"type": "Point", "coordinates": [56.96868629493906, 55.702338480541414]}}, {"type": "Feature", "properties": {"norad_id": 35580, "name": "COSMOS 2251 DEB", "group": "cosmos-2251-debris", "lat": -19.391225946849065, "lon": 147.89556845485822, "alt_km": 1159.565756459754, "timestamp": "2025-12-27T10:28:59.190408+00:00", "meta": {"OBJECT_NAME": "COSMOS 2251 DEB", "OBJECT_ID": "1993-036ALX", "EPOCH": "2025-12-27T03:38:47.457024", "MEAN_MOTION": 13.83953444, "ECCENTRICITY": 0.0280309, "INCLINATION": 73.9018, "RA_OF_ASC_NODE": 154.2138, "ARG_OF_PERICENTER": 156.6892, "MEAN_ANOMALY": 204.724, "EPHEMERIS_TYPE": 0, "CLASSIFICATION_TYPE": "U", "NORAD_CAT_ID": 35580, "ELEMENT_SET_NO": 999, "REV_AT_EPOCH": 62456, "BSTAR": 0.0026233, "MEAN_MOTION_DOT": 3.926e-05, "MEAN_MOTION_DDOT": 0}, "tle": {"line1": "1 35580U 93036ALX 25361.15193816  .00003926  00000+0  26233-2 0  9990", "line2": "2 35580  73.9018 154.2138 0280309 156.6892 204.7240 13.83953444624560"}}, "geometry": {"type": "Point", "coordinates": [147.89556845485822, -19.391225946849065]}}, {"type": "Feature", "properties": {"norad_id": 35583, "name": "COSMOS 2251 DEB", "group": "cosmos-2251-debris", "lat": -28.696207042920165, "lon": 179.11067649962635, "alt_km": 1193.8493571273202, "timestamp": "2025-12-27T10:28:59.190418+00:00", "meta": {"OBJECT_NAME": "COSMOS 2251 DEB", "OBJECT_ID": "1993-036AMA", "EPOCH": "2025-12-25T05:29:42.958752", "MEAN_MOTION": 13.55357514, "ECCENTRICITY": 0.0384921, "INCLINATION": 73.9156, "RA_OF_ASC_NODE": 191.7748, "ARG_OF_PERICENTER": 213.8276, "MEAN_ANOMALY": 143.7737, "EPHEMERIS_TYPE": 0, "CLASSIFICATION_TYPE": "U", "NORAD_CAT_ID": 35583, "ELEMENT_SET_NO": 999, "REV_AT_EPOCH": 82581, "BSTAR": 0.00086553, "MEAN_MOTION_DOT": 9.41e-06, "MEAN_MOTION_DDOT": 0}, "tle": {"line1": "1 35583U 93036AMA 25359.22896943  .00000941  00000+0  86553-3 0  9995", "line2": "2 35583  73.9156 191.7748 0384921 213.8276 143.7737 13.55357514825815"}}, "geometry": {"type": "Point", "coordinates": [179.11067649962635, -28.696207042920165]}}, {"type": "Feature", "properties": {"norad_id": 35585, "name": "COSMOS 2251 DEB", "group": "cosmos-2251-debris", "lat": -68.22270711947951, "lon": -170.10870660791653, "alt_km": 774.5972825376512, "timestamp": "2025-12-27T10:28:59.190429+00:00", "meta": {"OBJECT_NAME": "COSMOS 2251 DEB", "OBJECT_ID": "1993-036AMC", "EPOCH": "2025-12-21T09:07:18.442848", "MEAN_MOTION": 13.75269672, "ECCENTRICITY": 0.03103986, "INCLINATION": 73.9717, "RA_OF_ASC_NODE": 333.9847, "ARG_OF_PERICENTER": 244.5384, "MEAN_ANOMALY": 273.7703, "EPHEMERIS_TYPE": 0, "CLASSIFICATION_TYPE": "U", "NORAD_CAT_ID": 35585, "ELEMENT_SET_NO": 999, "REV_AT_EPOCH": 64182, "BSTAR": 0.00073727274, "MEAN_MOTION_DOT": 9.8e-06, "MEAN_MOTION_DDOT": 0}, "tle": {"line1": "1 35585U 93036AMC 25355.38007457  .00000980  00000+0  73727-3 0  9996", "line2": "2 35585  73.9717 333.9847 0310398 244.5384 273.7703 13.75269672641821"}}, "geometry": {"type": "Point", "coordinates": [-170.10870660791653, -68.22270711947951]}}, {"type": "Feature", "properties": {"norad_id": 35586, "name": "COSMOS 2251 DEB", "group": "cosmos-2251-debris", "lat": -56.84456865041244, "lon": -107.08297887063219, "alt_km": 1323.9510628969201, "timestamp": "2025-12-27T10:28:59.190439+00:00", "meta": {"OBJECT_NAME": "COSMOS 2251 DEB", "OBJECT_ID": "1993-036AMD", "EPOCH": "2025-12-26T12:34:40.833408", "MEAN_MOTION": 13.5209486, "ECCENTRICITY": 0.0404139, "INCLINATION": 74.0201, "RA_OF_ASC_NODE": 280.3945, "ARG_OF_PERICENTER": 152.7777, "MEAN_ANOMALY": 23.2121, "EPHEMERIS_TYPE": 0, "CLASSIFICATION_TYPE": "U", "NORAD_CAT_ID": 35586, "ELEMENT_SET_NO": 999, "REV_AT_EPOCH": 60568, "BSTAR": 0.00041333, "MEAN_MOTION_DOT": 4.35e-06, "MEAN_MOTION_DDOT": 0}, "tle": {"line1": "1 35586U 93036AMD 25360.52408372  .00000435  00000+0  41333-3 0  9993", "line2": "2 35586  74.0201 280.3945 0404139 152.7777  23.2121 13.52094860605685"}}, "geometry": {"type": "Point", "coordinates": [-107.08297887063219, -56.84456865041244]}}, {"type": "Feature", "properties": {"norad_id": 35587, "name": "COSMOS 2251 DEB", "group": "cosmos-2251-debris", "lat": 0.5665585681343126, "lon": 29.965487425375333, "alt_km": 718.4249875837168, "timestamp": "2025-12-27T10:28:59.190449+00:00", "meta": {"OBJECT_NAME": "COSMOS 2251 DEB", "OBJECT_ID": "1993-036AME", "EPOCH": "2025-12-24T09:03:29.515680", "MEAN_MOTION": 14.7155971, "ECCENTRICITY": 0.01022451, "INCLINATION": 74.0058, "RA_OF_ASC_NODE": 35.7588, "ARG_OF_PERICENTER": 220.8718, "MEAN_ANOMALY": 138.4757, "EPHEMERIS_TYPE": 0, "CLASSIFICATION_TYPE": "U", "NORAD_CAT_ID": 35587, "ELEMENT_SET_NO": 999, "REV_AT_EPOCH": 66517, "BSTAR": 0.00025641607, "MEAN_MOTION_DOT": 1.692e-05, "MEAN_MOTION_DDOT": 0}, "tle": {"line1": "1 35587U 93036AME 25358.37742495  .00001692  00000+0  25642-3 0  9992", "line2": "2 35587  74.0058  35.7588 0102245 220.8718 138.4757 14.71559710665172"}}, "geometry": {"type": "Point", "coordinates": [29.965487425375333, 0.5665585681343126]}}, {"type": "Feature", "properties": {"norad_id": 35593, "name": "COSMOS 2251 DEB", "group": "cosmos-2251-debris", "lat": -41.40084150190017, "lon": 96.5667690262764, "alt_km": 755.8506682326397, "timestamp": "2025-12-27T10:28:59.190458+00:00", "meta": {"OBJECT_NAME": "COSMOS 2251 DEB", "OBJECT_ID": "1993-036AML", "EPOCH": "2025-12-24T00:35:28.875264", "MEAN_MOTION": 14.25635831, "ECCENTRICITY": 0.01050685, "INCLINATION": 74.0857, "RA_OF_ASC_NODE": 268.1373, "ARG_OF_PERICENTER": 272.0988, "MEAN_ANOMALY": 86.8131, "EPHEMERIS_TYPE": 0, "CLASSIFICATION_TYPE": "U", "NORAD_CAT_ID": 35593, "ELEMENT_SET_NO": 999, "REV_AT_EPOCH": 85226, "BSTAR": 0.00070261528, "MEAN_MOTION_DOT": 1.738e-05, "MEAN_MOTION_DDOT": 0}, "tle": {"line1": "1 35593U 93036AML 25358.02463976  .00001738  00000+0  70262-3 0  9994", "line2": "2 35593  74.0857 268.1373 0105068 272.0988  86.8131 14.25635831852262"}}, "geometry": {"type": "Point", "coordinates": [96.5667690262764, -41.40084150190017]}}, {"type": "Feature", "properties": {"norad_id": 35594, "name": "COSMOS 2251 DEB", "group": "cosmos-2251-debris", "lat": -50.12428574978984, "lon": -82.83478615912094, "alt_km": 595.5764753571102, "timestamp": "2025-12-27T10:28:59.190468+00:00", "meta": {"OBJECT_NAME": "COSMOS 2251 DEB", "OBJECT_ID": "1993-036AMM", "EPOCH": "2025-12-24T13:41:05.114112", "MEAN_MOTION": 14.88271884, "ECCENTRICITY": 0.00288579, "INCLINATION": 73.806, "RA_OF_ASC_NODE": 82.6068, "ARG_OF_PERICENTER": 193.3523, "MEAN_ANOMALY": 166.6896, "EPHEMERIS_TYPE": 0, "CLASSIFICATION_TYPE": "U", "NORAD_CAT_ID": 35594, "ELEMENT_SET_NO": 999, "REV_AT_EPOCH": 88361, "BSTAR": 0.0016876649, "MEAN_MOTION_DOT": 0.00015714, "MEAN_MOTION_DDOT": 0}, "tle": {"line1": "1 35594U 93036AMM 25358.57019808  .00015714  00000+0  16877-2 0  9996", "line2": "2 35594  73.8060  82.6068 0028857 193.3523 166.6896 14.88271884883617"}}, "geometry": {"type": "Point", "coordinates": [-82.83478615912094, -50.12428574978984]}}, {"type": "Feature", "properties": {"norad_id": 35602, "name": "COSMOS 2251 DEB", "group": "cosmos-2251-debris", "lat": -39.052150766996995, "lon": 137.1226579678242, "alt_km": 481.122162203882, "timestamp": "2025-12-27T10:28:59.190478+00:00", "meta": {"OBJECT_NAME": "COSMOS 2251 DEB", "OBJECT_ID": "1993-036AMV", "EPOCH": "2025-12-26T19:19:37.155360", "MEAN_MOTION": 15.35665906, "ECCENTRICITY": 0.00877374, "INCLINATION": 73.9943, "RA_OF_ASC_NODE": 151.9485, "ARG_OF_PERICENTER": 214.5989, "MEAN_ANOMALY": 213.8576, "EPHEMERIS_TYPE": 0, "CLASSIFICATION_TYPE": "U", "NORAD_CAT_ID": 35602, "ELEMENT_SET_NO": 999, "REV_AT_EPOCH": 90307, "BSTAR": 0.00067564138, "MEAN_MOTION_DOT": 0.00026679, "MEAN_MOTION_DDOT": 0}, "tle": {"line1": "1 35602U 93036AMV 25360.80529115  .00026679  00000+0  67564-3 0  9994", "line2": "2 35602  73.9943 151.9485 0087737 214.5989 213.8576 15.35665906903073"}}, "geometry": {"type": "Point", "coordinates": [137.1226579678242, -39.052150766996995]}}]}